STARLINK-1423_new
1 15710C 20035BF  21326.15487976 -.00017967  00000-0 -12038-2 0  3260
2 15710  53.0520 238.0535 0001892  70.0388  82.6678 15.06416973    16
STARLINK-1423_old
1 25710C 20035BF  21325.15813940  .00008207  00000-0  54982-3 0  3252
2 25710  53.0525 242.5279 0001915  68.7242  75.6101 15.06394721    14
